[{"OBJECT_NAME":"ONEWEB-0150","OBJECT_ID":"2021-025F","EPOCH":"2026-04-29T02:53:51.726048","MEAN_MOTION":13.13469786,"ECCENTRICITY":0.0001641,"INCLINATION":87.8968,"RA_OF_ASC_NODE":329.9868,"ARG_OF_PERICENTER":91.9377,"MEAN_ANOMALY":268.194,"EPHEMERIS_TYPE":0,"CLASSIFICATION_TYPE":"U","NORAD_CAT_ID":48047,"ELEMENT_SET_NO":999,"REV_AT_EPOCH":24710,"BSTAR":0.00065326,"MEAN_MOTION_DOT":2.51e-06,"MEAN_MOTION_DDOT":0.0},{"OBJECT_NAME":"ONEWEB-0107","OBJECT_ID":"2021-025G","EPOCH":"2026-04-29T06:35:40.411392","MEAN_MOTION":13.13470445,"ECCENTRICITY":0.000146,"INCLINATION":87.8969,"RA_OF_ASC_NODE":329.9514,"ARG_OF_PERICENTER":83.2665,"MEAN_ANOMALY":276.863,"EPHEMERIS_TYPE":0,"CLASSIFICATION_TYPE":"U","NORAD_CAT_ID":48048,"ELEMENT_SET_NO":999,"REV_AT_EPOCH":24710,"BSTAR":0.0007057,"MEAN_MOTION_DOT":2.7e-06,"MEAN_MOTION_DDOT":0.0},{"OBJECT_NAME":"ONEWEB-0101","OBJECT_ID":"2021-025H","EPOCH":"2026-04-29T00:12:57.373632","MEAN_MOTION":13.13470566,"ECCENTRICITY":0.0001704,"INCLINATION":87.896,"RA_OF_ASC_NODE":330.0249,"ARG_OF_PERICENTER":81.2656,"MEAN_ANOMALY":278.8666,"EPHEMERIS_TYPE":0,"CLASSIFICATION_TYPE":"U","NORAD_CAT_ID":48049,"ELEMENT_SET_NO":999,"REV_AT_EPOCH":24704,"BSTAR":-0.0002639,"MEAN_MOTION_DOT":-8.4e-07,"MEAN_MOTION_DDOT":0.0},{"OBJECT_NAME":"ONEWEB-0113","OBJECT_ID":"2021-025J","EPOCH":"2026-04-29T06:40:10.947072","MEAN_MOTION":13.13947907,"ECCENTRICITY":0.0001991,"INCLINATION":87.8966,"RA_OF_ASC_NODE":329.886,"ARG_OF_PERICENTER":90.5274,"MEAN_ANOMALY":269.6084,"EPHEMERIS_TYPE":0,"CLASSIFICATION_TYPE":"U","NORAD_CAT_ID":48050,"ELEMENT_SET_NO":999,"REV_AT_EPOCH":24718,"BSTAR":0.0004950800000000001,"MEAN_MOTION_DOT":1.95e-06,"MEAN_MOTION_DDOT":0.0},{"OBJECT_NAME":"ONEWEB-0112","OBJECT_ID":"2021-025K","EPOCH":"2026-04-29T06:43:00.141600","MEAN_MOTION":13.1347005,"ECCENTRICITY":0.0001618,"INCLINATION":87.897,"RA_OF_ASC_NODE":329.9481,"ARG_OF_PERICENTER":77.4166,"MEAN_ANOMALY":282.7145,"EPHEMERIS_TYPE":0,"CLASSIFICATION_TYPE":"U","NORAD_CAT_ID":48051,"ELEMENT_SET_NO":999,"REV_AT_EPOCH":24717,"BSTAR":0.00051156,"MEAN_MOTION_DOT":2e-06,"MEAN_MOTION_DDOT":0.0},{"OBJECT_NAME":"ONEWEB-0156","OBJECT_ID":"2021-025L","EPOCH":"2026-04-29T06:55:11.189280","MEAN_MOTION":13.13469658,"ECCENTRICITY":0.0001601,"INCLINATION":87.897,"RA_OF_ASC_NODE":329.9569,"ARG_OF_PERICENTER":86.7553,"MEAN_ANOMALY":273.3759,"EPHEMERIS_TYPE":0,"CLASSIFICATION_TYPE":"U","NORAD_CAT_ID":48052,"ELEMENT_SET_NO":999,"REV_AT_EPOCH":24715,"BSTAR":-0.00012999,"MEAN_MOTION_DOT":-3.5e-07,"MEAN_MOTION_DDOT":0.0},{"OBJECT_NAME":"ONEWEB-0161","OBJECT_ID":"2021-025M","EPOCH":"2026-04-29T02:39:13.929696","MEAN_MOTION":13.13470561,"ECCENTRICITY":0.0001547,"INCLINATION":87.8958,"RA_OF_ASC_NODE":329.997,"ARG_OF_PERICENTER":86.0085,"MEAN_ANOMALY":274.1221,"EPHEMERIS_TYPE":0,"CLASSIFICATION_TYPE":"U","NORAD_CAT_ID":48053,"ELEMENT_SET_NO":999,"REV_AT_EPOCH":24706,"BSTAR":0.0008934,"MEAN_MOTION_DOT":3.39e-06,"MEAN_MOTION_DDOT":0.0},{"OBJECT_NAME":"ONEWEB-0158","OBJECT_ID":"2021-025N","EPOCH":"2026-04-29T07:09:47.987712","MEAN_MOTION":13.13470951,"ECCENTRICITY":0.0002064,"INCLINATION":87.8968,"RA_OF_ASC_NODE":329.9542,"ARG_OF_PERICENTER":82.3231,"MEAN_ANOMALY":277.8133,"EPHEMERIS_TYPE":0,"CLASSIFICATION_TYPE":"U","NORAD_CAT_ID":48054,"ELEMENT_SET_NO":999,"REV_AT_EPOCH":24721,"BSTAR":-0.00080802,"MEAN_MOTION_DOT":-2.82e-06,"MEAN_MOTION_DDOT":0.0},{"OBJECT_NAME":"ONEWEB-0157","OBJECT_ID":"2021-025P","EPOCH":"2026-04-29T02:17:16.621728","MEAN_MOTION":13.13470952,"ECCENTRICITY":0.0001369,"INCLINATION":87.8972,"RA_OF_ASC_NODE":329.9996,"ARG_OF_PERICENTER":80.3096,"MEAN_ANOMALY":279.8188,"EPHEMERIS_TYPE":0,"CLASSIFICATION_TYPE":"U","NORAD_CAT_ID":48055,"ELEMENT_SET_NO":999,"REV_AT_EPOCH":24712,"BSTAR":0.00019033,"MEAN_MOTION_DOT":8.2e-07,"MEAN_MOTION_DDOT":0.0},{"OBJECT_NAME":"ONEWEB-0162","OBJECT_ID":"2021-025Q","EPOCH":"2026-04-28T23:53:15.952128","MEAN_MOTION":13.13469973,"ECCENTRICITY":0.0001651,"INCLINATION":87.8963,"RA_OF_ASC_NODE":330.0226,"ARG_OF_PERICENTER":90.8392,"MEAN_ANOMALY":269.2926,"EPHEMERIS_TYPE":0,"CLASSIFICATION_TYPE":"U","NORAD_CAT_ID":48056,"ELEMENT_SET_NO":999,"REV_AT_EPOCH":24708,"BSTAR":-0.00093502,"MEAN_MOTION_DOT":-3.29e-06,"MEAN_MOTION_DDOT":0.0},{"OBJECT_NAME":"ONEWEB-0155","OBJECT_ID":"2021-025R","EPOCH":"2026-04-29T00:03:12.467232","MEAN_MOTION":13.13470243,"ECCENTRICITY":0.0001672,"INCLINATION":87.8963,"RA_OF_ASC_NODE":330.0176,"ARG_OF_PERICENTER":80.3519,"MEAN_ANOMALY":279.7799,"EPHEMERIS_TYPE":0,"CLASSIFICATION_TYPE":"U","NORAD_CAT_ID":48057,"ELEMENT_SET_NO":999,"REV_AT_EPOCH":24722,"BSTAR":-0.0006729300000000001,"MEAN_MOTION_DOT":-2.33e-06,"MEAN_MOTION_DDOT":0.0},{"OBJECT_NAME":"ONEWEB-0149","OBJECT_ID":"2021-025S","EPOCH":"2026-04-29T02:24:36.475488","MEAN_MOTION":13.13470299,"ECCENTRICITY":0.0001687,"INCLINATION":87.897,"RA_OF_ASC_NODE":329.9989,"ARG_OF_PERICENTER":92.8787,"MEAN_ANOMALY":267.2535,"EPHEMERIS_TYPE":0,"CLASSIFICATION_TYPE":"U","NORAD_CAT_ID":48058,"ELEMENT_SET_NO":999,"REV_AT_EPOCH":24704,"BSTAR":0.00054431,"MEAN_MOTION_DOT":2.12e-06,"MEAN_MOTION_DDOT":0.0},{"OBJECT_NAME":"ONEWEB-0148","OBJECT_ID":"2021-025T","EPOCH":"2026-04-29T07:00:03.296448","MEAN_MOTION":13.13470606,"ECCENTRICITY":0.0001468,"INCLINATION":87.8961,"RA_OF_ASC_NODE":329.9716,"ARG_OF_PERICENTER":104.6491,"MEAN_ANOMALY":255.4801,"EPHEMERIS_TYPE":0,"CLASSIFICATION_TYPE":"U","NORAD_CAT_ID":48059,"ELEMENT_SET_NO":999,"REV_AT_EPOCH":24719,"BSTAR":-0.00033949,"MEAN_MOTION_DOT":-1.11e-06,"MEAN_MOTION_DDOT":0.0},{"OBJECT_NAME":"ONEWEB-0160","OBJECT_ID":"2021-025U","EPOCH":"2026-04-29T00:05:39.499296","MEAN_MOTION":13.13469459,"ECCENTRICITY":0.0002497,"INCLINATION":87.8961,"RA_OF_ASC_NODE":330.025,"ARG_OF_PERICENTER":88.4691,"MEAN_ANOMALY":271.6725,"EPHEMERIS_TYPE":0,"CLASSIFICATION_TYPE":"U","NORAD_CAT_ID":48060,"ELEMENT_SET_NO":999,"REV_AT_EPOCH":24710,"BSTAR":-0.00067797,"MEAN_MOTION_DOT":-2.35e-06,"MEAN_MOTION_DDOT":0.0},{"OBJECT_NAME":"ONEWEB-0163","OBJECT_ID":"2021-025V","EPOCH":"2026-04-29T07:02:28.676544","MEAN_MOTION":13.13470523,"ECCENTRICITY":0.0001449,"INCLINATION":87.896,"RA_OF_ASC_NODE":329.9604,"ARG_OF_PERICENTER":80.5443,"MEAN_ANOMALY":279.585,"EPHEMERIS_TYPE":0,"CLASSIFICATION_TYPE":"U","NORAD_CAT_ID":48061,"ELEMENT_SET_NO":999,"REV_AT_EPOCH":24726,"BSTAR":-0.0005557299999999999,"MEAN_MOTION_DOT":-1.9e-06,"MEAN_MOTION_DDOT":0.0},{"OBJECT_NAME":"ONEWEB-0159","OBJECT_ID":"2021-025W","EPOCH":"2026-04-29T06:50:19.284288","MEAN_MOTION":13.13472676,"ECCENTRICITY":0.0001515,"INCLINATION":87.897,"RA_OF_ASC_NODE":329.9528,"ARG_OF_PERICENTER":80.1448,"MEAN_ANOMALY":279.9852,"EPHEMERIS_TYPE":0,"CLASSIFICATION_TYPE":"U","NORAD_CAT_ID":48062,"ELEMENT_SET_NO":999,"REV_AT_EPOCH":24718,"BSTAR":2.5450000000000002e-05,"MEAN_MOTION_DOT":2.2e-07,"MEAN_MOTION_DDOT":0.0}]