ONEWEB-0150             
1 48047U 21025F   26119.12073757  .00000251  00000+0  65326-3 0  9996
2 48047  87.8968 329.9868 0001641  91.9377 268.1940 13.13469786247106
ONEWEB-0107             
1 48048U 21025G   26119.27477328  .00000270  00000+0  70570-3 0  9993
2 48048  87.8969 329.9514 0001460  83.2665 276.8630 13.13470445247105
ONEWEB-0101             
1 48049U 21025H   26119.00899738 -.00000084  00000+0 -26390-3 0  9994
2 48049  87.8960 330.0249 0001704  81.2656 278.8666 13.13470566247042
ONEWEB-0113             
1 48050U 21025J   26119.27790448  .00000195  00000+0  49508-3 0  9990
2 48050  87.8966 329.8860 0001991  90.5274 269.6084 13.13947907247187
ONEWEB-0112             
1 48051U 21025K   26119.27986275  .00000200  00000+0  51156-3 0  9995
2 48051  87.8970 329.9481 0001618  77.4166 282.7145 13.13470050247176
ONEWEB-0156             
1 48052U 21025L   26119.28832395 -.00000035  00000+0 -12999-3 0  9990
2 48052  87.8970 329.9569 0001601  86.7553 273.3759 13.13469658247156
ONEWEB-0161             
1 48053U 21025M   26119.11057789  .00000339  00000+0  89340-3 0  9998
2 48053  87.8958 329.9970 0001547  86.0085 274.1221 13.13470561247069
ONEWEB-0158             
1 48054U 21025N   26119.29847208 -.00000282  00000+0 -80802-3 0  9994
2 48054  87.8968 329.9542 0002064  82.3231 277.8133 13.13470951247215
ONEWEB-0157             
1 48055U 21025P   26119.09533127  .00000082  00000+0  19033-3 0  9999
2 48055  87.8972 329.9996 0001369  80.3096 279.8188 13.13470952247121
ONEWEB-0162             
1 48056U 21025Q   26118.99532352 -.00000329  00000+0 -93502-3 0  9996
2 48056  87.8963 330.0226 0001651  90.8392 269.2926 13.13469973247089
ONEWEB-0155             
1 48057U 21025R   26119.00222763 -.00000233  00000+0 -67293-3 0  9994
2 48057  87.8963 330.0176 0001672  80.3519 279.7799 13.13470243247224
ONEWEB-0149             
1 48058U 21025S   26119.10042217  .00000212  00000+0  54431-3 0  9995
2 48058  87.8970 329.9989 0001687  92.8787 267.2535 13.13470299247044
ONEWEB-0148             
1 48059U 21025T   26119.29170482 -.00000111  00000+0 -33949-3 0  9993
2 48059  87.8961 329.9716 0001468 104.6491 255.4801 13.13470606247197
ONEWEB-0160             
1 48060U 21025U   26119.00392939 -.00000235  00000+0 -67797-3 0  9992
2 48060  87.8961 330.0250 0002497  88.4691 271.6725 13.13469459247109
ONEWEB-0163             
1 48061U 21025V   26119.29338746 -.00000190  00000+0 -55573-3 0  9999
2 48061  87.8960 329.9604 0001449  80.5443 279.5850 13.13470523247260
ONEWEB-0159             
1 48062U 21025W   26119.28494542  .00000022  00000+0  25450-4 0  9990
2 48062  87.8970 329.9528 0001515  80.1448 279.9852 13.13472676247180
